Gremio,Nombre,Dirección,Teléfono,Email,Persona de contacto,Web,Lat,Lon,ID,Fuente
Fontaneros,Fontanero Urgencia Madrid,"C. de Zurbarán, 8, Chamberí, 28010 Madrid",,,,,40.429482,-3.6933341,gplace/ChIJ7ef_4KEpQg0RkfA3yhChz5Q,Google
Fontaneros,JF Servicios | Fontaneros en Madrid Urgentes,"Cl. de Ayala, 11, Salamanca, 28001 Madrid",,,,,40.4280173,-3.6869612,gplace/ChIJhx29upYoQg0R0Io_-kjsdeM,Google
Fontaneros,Reparaciones Urgentes Fontaneros Madrid,"Gran Vía, 6, Centro, 28013 Madrid",,,,,40.4194938,-3.6979092,gplace/ChIJTcwFrXwoQg0REspC7vUGtB8,Google
Fontaneros,SATHOGAR®,"El Santo de la Isidra, 31, Villaverde, 28041 Madrid, España, 28041, Madrid, Madrid, España",691 08 91 99,,,https://sathogar.pro/,40.353651,-3.7041675,gplace/None,Google
Fontaneros,Fonser Instalaciones,"Av. de la Gran Vía del Sureste, 16, Vallecas, 28031 Madrid, España, 28031, Madrid, Madrid, España",665 87 21 67,,,https://fonserinstalaciones.com/,40.3643385,-3.5888333,gplace/None,Google
Fontaneros,Reparaciones de Fontanería,"C. de la Basílica, 15, Tetuán, 28020 Madrid",,,,,40.4491158,-3.6957099,gplace/ChIJBSpj5JUpQg0RdkJ9mQEv7KU,Google
Fontaneros,Fontanería José Prieto,"C. de la Torrecilla del Leal, 2, LOCAL, Centro, 28012 Madrid, España, 28012, Madrid, Madrid, España",915 06 19 51,,,http://www.fontanerosmadridcentro.es/,40.411675,-3.6995239,gplace/None,Google
Fontaneros,Fernández Servicios e Instalaciones Fontaneros y Poceros Urgentes en Madrid,"C. del Arroyo del Olivar, 158, Puente de Vallecas, 28053 Madrid",,,,,40.3881831,-3.6523631,gplace/ChIJq6peTNslQg0RwywgYuGX3iU,Google
Fontaneros,Instalador de gas autorizado en Madrid 🔥 Sergon Sat | Reparacion fugas de Gas · Aire acondiconado Madrid,"C/ de Alfonso XIII, 10, Puente de Vallecas, 28038 Madrid",,,,,40.4010526,-3.6620117,gplace/ChIJH8pheeIlQg0RQ_HcMowG2gg,Google
Fontaneros,FONTANEROS URGENCIAS 24 HORAS MADRID,"C. del Lucero, 17, Latina, 28047 Madrid, España, 28047, Madrid, Madrid, España",652 66 18 46,,,https://www.fontaneros24horasmadrid.es/,40.403172,-3.7476679,gplace/None,Google
Fontaneros,Soluciones Fontanería y Albañilería - 24 Horas Urgencias Madrid,"C. Don Quijote, 9, 28922 Alcorcón, Madrid, España, 28922, Alcorcón, Madrid, España",686 74 34 82,,,https://www.soluciones-de-fontaneria.es/,40.3409739,-3.8296236,gplace/None,Google
Fontaneros,Tecnirep Servicios,"C. Gamonal, 21, 1ºd, Vallecas, 28031 Madrid, España, 28031, Madrid, Madrid, España",915 78 68 95,,,https://www.tecnirep.es/,40.3730424,-3.644113399999999,gplace/None,Google
Fontaneros,SAT REPARACION MULTISERVICIOS,"C. Benadalid, Puente de Vallecas, 28018 Madrid, España, 28018, Madrid, Madrid, España",911 29 87 84,,,https://www.satreparacion.com/,40.386331,-3.638458,gplace/None,Google
Fontaneros,SAT LEGANES,"C. de Méjico, 30, LOCAL 2, 28918 Leganés, Madrid, España, 28918, Leganés, Madrid, España",916 88 14 44,,,https://fpiquero.es/,40.341899,-3.769211,gplace/None,Google
Fontaneros,Fontanero En Tu Zona,"C. de Leganitos, 47, planta 7, Centro, 28013 Madrid, España, 28013, Madrid, Madrid, España",641 42 67 26,,,https://fontaneroentuzona.es/?utm_source=google&utm_medium=organic&utm_campaign=gbp,40.4229856,-3.7111183,gplace/None,Google
Fontaneros,Instaladores y Reformas Sapur,"Locales Posteriores, C. de Puentelarra, 12, Vallecas, 28031 Madrid, España, 28031, Madrid, Madrid, España",913 31 99 11,,,https://instalacionesyreformasapur.es/,40.3831912,-3.6090427,gplace/None,Google
Fontaneros,Soluciones Vallehermoso,"C. de Lucio del Valle, 16, Chamberí, 28003 Madrid, España, 28003, Madrid, Madrid, España",915 33 22 87,,,https://www.solucionesvallehermoso.com/,40.4401504,-3.7087432,gplace/None,Google
Fontaneros,Fugas de Agua Madrid,"C. Condes de Barcelona, 7, Carabanchel, 28019 Madrid, España, 28019, Madrid, Madrid, España",619 31 99 92,,,https://www.fugasdeaguamadrid.net/,40.3952174,-3.7145164,gplace/None,Google
Fontaneros,Instalador de gas en Madrid - (Todo En Gas),"C/ de José Arcones Gil, 110, P07 C, Cdad. Lineal, 28017 Madrid, España, 28017, Madrid, Madrid, España",691 30 80 01,,,https://instaladorgasmadrid.net/,40.4278775,-3.634221199999999,gplace/None,Google
Fontaneros,Fontaneria y Saneamientos TABEGA S.L,"C/ de los Sagrados Corazones, 17, Latina, 28011 Madrid, España, 28011, Madrid, Madrid, España",914 79 12 02,,,http://www.fontaneriaysaneamientostabega.es/,40.4068525,-3.739783699999999,gplace/None,Google
Fontaneros,Fontanero Centro Madrid,"C/ del Alcalde Sainz de Baranda, 7, Retiro, 28009 Retiro, Madrid, España, 28009, Retiro, Madrid, España",673 40 72 09,,,https://www.fontanerocentromadrid.com/,40.4171348,-3.6769666,gplace/None,Google
Fontaneros,Metrópoli fontanero Madrid,"Av del Manzanares, 152, Carabanchel, 28019 Madrid, España, 28019, Madrid, Madrid, España",919 93 17 64,,,,40.3960939,-3.7098887,gplace/None,Google
Fontaneros,FONTYCAM,"Ctra. Villaverde a Vallecas, 46, Villaverde, 28021 Madrid, España, 28021, Madrid, Madrid, España",637 65 41 60,,,http://averiasfontanero.com/,40.35786960000001,-3.6844602,gplace/None,Google
Fontaneros,Fontanería Urgente Barrios Madrid,"C. Pozohalcón, 30, Puente de Vallecas, 28053 Madrid, España, 28053, Madrid, Madrid, España",666 89 14 01,,,http://www.fontaneriaurgentebarrios.es/,40.3774562,-3.666170299999999,gplace/None,Google
Fontaneros,Fontaneros 24h Madrid – Fontanero Urgente Y Desatascos - Fontanero Vicálvaro,"C. Abad Juan Catalán, 16, Vicálvaro, 28032 Madrid, España, 28032, Madrid, Madrid, España",636 42 79 70,,,http://madrid.fontanero-urgente.com.es/,40.40478179999999,-3.5928842,gplace/None,Google
Fontaneros,fontanero24h O´Donnell,"Calle de O'Donnell, 16, 2º derecha, Retiro, 28009 Madrid, España, 28009, Madrid, Madrid, España",601 89 56 97,,,https://fontanero24h-odonnell.com/,40.4214005,-3.6773585,gplace/None,Google
Fontaneros,Multiservicios y Reformas Miguel,"C. de Pechuán, 12, Chamartín, 28002 Madrid, España, 28002, Madrid, Madrid, España",915 64 29 59,,,http://reformasmiguel.com/index.php/habla-con-nosotros,40.44478549999999,-3.6766564,gplace/None,Google
Fontaneros,FonReps Fontanero y Reparador Doméstico,"C. del Arroyo, 10, Tetuán, 28029 Madrid, España, 28029, Madrid, Madrid, España",672 07 44 02,,,https://fonreps.com/,40.4690084,-3.701049199999999,gplace/None,Google
Fontaneros,OBRAS DE POCERIA EN MADRID - DESATRANCOS - ATASCOS - SECOM,"C. Benamargosa, 1, Puente de Vallecas, 28018 Madrid, España, 28018, Madrid, Madrid, España",670 75 72 72,,,https://www.poceriasecom.com/,40.3837178,-3.6422854,gplace/None,Google
Fontaneros,Fontaneros Madrid EU | Servicio 24 horas,"C. Teobaldo, 1, Carabanchel, 28025 Madrid, España, 28025, Madrid, Madrid, España",919 93 09 19,,,https://fontanerosenmadrid.eu/,40.3790274,-3.7424683,gplace/None,Google
Fontaneros,Fontmadrid S.L.,"C. de Sarria, 38, local, Fuencarral-El Pardo, 28029 Madrid, España, 28029, Madrid, Madrid, España",917 40 52 65,,,http://fontmadrid.es/,40.47549679999999,-3.7137663,gplace/None,Google
Fontaneros,GB Fontanero Urgente en Tu Barrio,"C. de los Hermanos Machado, 52, Cdad. Lineal, 28017 Madrid, España, 28017, Madrid, Madrid, España",634 76 84 13,,,http://www.fontanerourgente24hmadrid.com/,40.4296799,-3.6488495,gplace/None,Google
Fontaneros,Fontaneros Madrid | Manuel Bueno,"C. de las Higueras, 84, Latina, 28047 Madrid, España, 28047, Madrid, Madrid, España",649 90 61 04,,,http://fontanero24horasenmadrid.com/,40.4024388,-3.745694499999999,gplace/None,Google
Fontaneros,REFORMAS Y MULTISERVICIOS MORAGA,"C. de Menasalbas, 2, Villaverde, 28041 Madrid, España, 28041, Madrid, Madrid, España",625 11 20 25,,,https://www.reformasymultiservicios.es/,40.3623155,-3.6956149,gplace/None,Google
Fontaneros,Fontanero Calefactor Raúl López García,"C. Écija, 97, 28231 Las Rozas de Madrid, Madrid, España, 28231, Las Rozas de Madrid, Madrid, España",649 39 36 20,,,http://www.fontaneroraullopezgarcia.es/,40.4878778,-3.8890753,gplace/None,Google
Fontaneros,Fontaneros Madrid 24h 🧰,"C. de Embajadores, 32, Centro, Centro, 28012 Madrid, España, 28012, Madrid, Madrid, España",910 05 95 22,,,https://fontanerosmadrid.madrid/,40.4088659,-3.7055562,gplace/None,Google
Fontaneros,Fontanero Jesús Ramayo - IRS Instalaciones,"C. de Circón, Arganzuela, 28045 Madrid, España, 28045, Madrid, Madrid, España",654 25 59 88,,,https://irsinstalacionesdelagua.es/,40.3969206,-3.6907595,gplace/None,Google
Fontaneros,Esquerdo Fontaneros,"C. del Dr. Esquerdo, 159, Retiro, 28007 Madrid, España, 28007, Madrid, Madrid, España",919 93 07 51,,,https://sites.google.com/view/esquerdofontaneros/inicio,40.4087863,-3.6697568,gplace/None,Google
Fontaneros,M.garcia,"C. de Palencia, 42, Tetuán, 28020 Madrid, España, 28020, Madrid, Madrid, España",915 33 39 31,,,,40.449574,-3.699425,gplace/None,Google
Fontaneros,Fontanería Calderón,"C. Concejal Julio Gómez, 11, Cdad. Lineal, 28027 Madrid, España, 28027, Madrid, Madrid, España",625 47 22 00,,,http://fontaneriacalderon.com.es/,40.433823,-3.6507197,gplace/None,Google
Fontaneros,JVC Fontaneros Urgencias,"Cra de S. Jerónimo, 3, Centro, 28014 Madrid, España, 28014, Madrid, Madrid, España",643 92 24 27,,,https://jvcfontanerosurgencias.madrid/,40.4167831,-3.7016713,gplace/None,Google
Fontaneros,Taher Jaebak Zbair,"C. Alcázar de San Juan, 6, Bajo Derecha Escalera Derecha, Latina, 28011 Madrid, España, 28011, Madrid, Madrid, España",637 48 92 01,,,https://fontanero-madrid.es/,40.407266,-3.7337306,gplace/None,Google
Fontaneros,LoMills Fontanería y Reformas Alemanas.,"C. de Eugenia de Montijo, 60, Carabanchel, 28025 Madrid, España, 28025, Madrid, Madrid, España",910 05 37 69,,,https://lomills.com/fontanero-carabanchel/,40.3802493,-3.7460446,gplace/None,Google
Fontaneros,Fontanero La Latina,"C. del Oso, 6, Centro, Centro, 28012 Madrid, España, 28012, Madrid, Madrid, España",919 93 13 46,,,https://sites.google.com/view/fontaneroslalatina/inicio,40.4099391,-3.7045462,gplace/None,Google
Fontaneros,Fontanero Cuatro Caminos,"C. de Teruel, 37, Tetuán, 28020 Madrid, España, 28020, Madrid, Madrid, España",919 93 03 78,,,https://sites.google.com/view/fontanerocuatrocaminos/inicio,40.45146829999999,-3.7005842,gplace/None,Google
Fontaneros,Fontaneros Express | Fontanero a domicilio 24h,"C. del Lucero, 2, Local, Latina, 28047 Madrid, España, 28047, Madrid, Madrid, España",658 80 40 84,,,https://www.fontanerosexpress.com/?utm_source=gmb&utm_medium=organic&utm_campaign=google-my-business,40.4039012,-3.7477012,gplace/None,Google
Fontaneros,"Fontanero Carballeira, Fontanería Las Rozas","C. Tulipán, 2, bloque 4 planta baja A, 28231 Las Rozas de Madrid, Madrid, España, 28231, Las Rozas de Madrid, Madrid, España",636 61 84 60,,,https://fontaneriacarballeira.es/,40.5006608,-3.8666323,gplace/None,Google
Fontaneros,Fontanería Julian Calderón,"C. de la Povedilla, 15, local 5, Salamanca, 28009 Madrid, España, 28009, Madrid, Madrid, España",658 88 08 51,,,,40.4238828,-3.6693934,gplace/None,Google
Fontaneros,"Instalaciones Muñoz Costo SL Fontanería, gas, calefacción","Pl. de Arteijo, 15, local, Fuencarral-El Pardo, 28029 Madrid, España, 28029, Madrid, Madrid, España",913 11 99 23,,,https://instalacionesmunozcosto.es/,40.4777906,-3.7067746,gplace/None,Google
Fontaneros,Fontanero Calefactor Autónomo Madrid,"Calle Mirto, Tetuán, Tetuán, 28029 Madrid, España, 28029, Madrid, Madrid, España",919 89 58 31,,,https://fontaneromadrid.pro/,40.4659767,-3.6985364,gplace/None,Google
Fontaneros,Fontanería H.M. Delgado,"c. de Melquíades Biencinto, 28, Puente de Vallecas, 28053 Madrid, España, 28053, Madrid, Madrid, España",915 01 38 02,,,https://fontaneria-h-m-delgado.jimdosite.com/,40.396186,-3.6702092,gplace/None,Google
Fontaneros,MG Instalaciones,"C. Cabeza Mesada, 20, Vallecas, 28031 Madrid, España, 28031, Madrid, Madrid, España",609 03 65 04,,,https://mgbinstalaciones.webnode.es/,40.3740405,-3.6266218,gplace/None,Google
Fontaneros,"Ecosat Madrid S.L. | Servicio Técnico Oficial Ariston, Chaffoteaux, Fleck de calderas","C. Laguna del Marquesado, 49, A, Villaverde, 28021 Madrid, España, 28021, Madrid, Madrid, España",911 61 00 27,,,https://ecosatmadrid.com/,40.3334547,-3.7104667,gplace/None,Google
Fontaneros,M.C-Gas instalaciones,"C. Mascaraque, 6, L-60, Carabanchel, 28044 Madrid, España, 28044, Madrid, Madrid, España",910 10 10 55,,,https://mcgasmadrid.es/,40.3743777,-3.757484599999999,gplace/None,Google
Fontaneros,Sat S L,"C. de Toledo, 168, Arganzuela, 28005 Madrid, España, 28005, Madrid, Madrid, España",902 11 99 30,,,,40.40284279999999,-3.7137441,gplace/None,Google
Fontaneros,"Detecmad, detección de fugas de agua y fontanería en general en Madrid y alrededores.","C. María Telo, 5, 28420 Parquelagos, Madrid, España, 28420, Parquelagos, Madrid, España",651 97 36 42,,,https://detecmad.com/,40.5904617,-3.9643238,gplace/None,Google
Fontaneros,Manautec | Servicio técnico oficial de las calderas Manaut,"Av. del Ensanche de Vallecas, 9, Vallecas, 28051 Madrid, España, 28051, Madrid, Madrid, España",911 61 00 15,,,http://www.manautec.es/,40.370665,-3.61281,gplace/None,Google
Fontaneros,Instalaciones Malaquías S.L.U.,"Servicio técnico y Postventa repuestos Grohe, Calle del Corregidor José de Pasamonte, 19, Moratalaz, 28030 Madrid, España, 28030, Madrid, Madrid, España",914 09 56 56,,,,40.41035730000001,-3.6479328,gplace/None,Google
Fontaneros,A.B.J - S.A.T.Servicio oficial Cata Nodor Apelson edesa,"ATENCION TELEFONICA, C. de Borja, 15, Latina, 28047 Madrid, España, 28047, Madrid, Madrid, España",913 66 33 18,,,https://www.cata.es/,40.3958634,-3.740942,gplace/None,Google
Fontaneros,Gremisat SL,"Poligono Industrial de Villaverde, C. del Valle de Tobalina, 26, Villaverde, 28021 Madrid, España, 28021, Madrid, Madrid, España",917 95 27 02,,,http://www.gremisat.com/,40.3365539,-3.7149143,gplace/None,Google
Fontaneros,SAT Madrid Servicio Técnico Electrodomésticos,"Parque Empresarial Prado del Espino, C. Impresores, 20, 28660 Boadilla del Monte, Madrid, España, 28660, Boadilla del Monte, Madrid, España",916 48 02 45,,,https://reparacion-electrodomesticos.es/,40.3950648,-3.8476726,gplace/None,Google
Fontaneros,Instalaciones S.L.,"C. del Puerto de Tarancón, 28, Puente de Vallecas, 28038 Madrid, España, 28038, Madrid, Madrid, España",917 25 72 49,,,,40.4025105,-3.6646807,gplace/None,Google
Fontaneros,HogarSAT,"C. de Tomás Bretón, 13, Arganzuela, 28045 Madrid, España, 28045, Madrid, Madrid, España",912 30 16 00,,,http://hogarsat.com/,40.39751100000001,-3.694088,gplace/None,Google
Fontaneros,Vilaservis,"C. Prudencio Álvaro, 16, Cdad. Lineal, 28027 Madrid, España, 28027, Madrid, Madrid, España",914 07 08 61,,,http://www.vilaservis.es/,40.4372062,-3.6463906,gplace/None,Google
Fontaneros,Orval Saneamientos E Instalaciones Sl,"C. de Valdecanillas, 33, San Blas-Canillejas, 28037 Madrid, España, 28037, Madrid, Madrid, España",917 54 56 55,,,,40.4317407,-3.6276284,gplace/None,Google
Fontaneros,Servicio de Manitas,"Calle de Antonio López, 25, Carabanchel, 28019 Madrid, España, 28019, Madrid, Madrid, España",622 09 33 75,,,,40.3965687,-3.71291,gplace/None,Google
Fontaneros,Tienda de Gas Natural y Energías Renovables S.L,"C. de Mantuano, 32, Chamartín, 28002 Madrid, España, 28002, Madrid, Madrid, España",,,,http://www.tiendagasnatural.com/,40.4464395,-3.6755833,gplace/None,Google
Fontaneros,SAT PROFESIONAL,"SAN DEOGRACIAS,13, LOCAL 1, Latina, 28044 Madrid, España, 28044, Madrid, Madrid, España",688 92 28 86,,,,40.377588,-3.771446,gplace/None,Google
Fontaneros,Erasmil Mantenimientos SL,"C. del Arroyo de la Media Legua, 29, Moratalaz, 28030 Madrid, España, 28030, Madrid, Madrid, España",914 09 49 00,,,https://www.erasmil.com/,40.4112218,-3.6562569,gplace/None,Google
Fontaneros,FHG SERMATEC S.L,"C. Prado de Las Encinas, 15, 28280 Madrid, España, 28280, Madrid, Madrid, España",615 47 55 44,,,http://www.fhgsermatec.com/?utm_source=GMB&utm_medium=Ficha-GMB&utm_campaign=SEO-LOCAL,40.5976861,-4.1282227,gplace/None,Google
Fontaneros,SAT Madrid SA,"C. de Ferraz, 22, Moncloa - Aravaca, 28008 Madrid, España, 28008, Madrid, Madrid, España",,,,,40.4249758,-3.7159188,gplace/None,Google
Fontaneros,Repadavi Fontanero,"C. del Pergamino, 54, Vicálvaro, 28032 Madrid, España, 28032, Madrid, Madrid, España",688 23 47 91,,,http://repadavi.es/,40.3939017,-3.6213201,gplace/None,Google
Fontaneros,FONMAR Fontaneros del Hogar,"C. de Asura, 95, Cdad. Lineal, 28043 Madrid, España, 28043, Madrid, Madrid, España",919 93 19 83,,,https://sites.google.com/view/fonmarfontanerosdelhogar/inicio,40.45709919999999,-3.6545383,gplace/None,Google
Fontaneros,Delicias Fontaneros,"Calle de las Delicias, 26, Arganzuela, 28045 Madrid, España, 28045, Madrid, Madrid, España",919 93 16 93,,,https://sites.google.com/view/fontaneros-delicias/inicio,40.4039889,-3.6923936,gplace/None,Google
Fontaneros,Pucho instalaciones sl,"Av. de María Moliner, 15, 13 1iz, 28919 Leganés, Madrid, España, 28919, Leganés, Madrid, España",696 49 88 89,,,https://puchoinstalaciones.com/,40.3438749,-3.7474476,gplace/None,Google
Fontaneros,FontaCentro,"C. de Canarias, 5, Arganzuela, 28045 Madrid, España, 28045, Madrid, Madrid, España",919 93 17 39,,,https://sites.google.com/view/fontacentro/inicio,40.4022729,-3.697211999999999,gplace/None,Google
Fontaneros,Fontanero Hortaleza | Averías,"C. de Joaquín Cimas, 7, Hortaleza, 28033 Madrid, España, 28033, Madrid, Madrid, España",919 93 12 67,,,https://sites.google.com/view/fontanerohortalezaaverias/inicio,40.47445889999999,-3.6501807,gplace/None,Google
Fontaneros,Proyectos Fongas S.L,"C. Aldeanueva de la Vera, 10, Latina, 28044 Madrid, España, 28044, Madrid, Madrid, España",686 17 64 30,,,,40.3804561,-3.7771219,gplace/None,Google
Fontaneros,Instalaciones Marcial S.l,"C. de San Filiberto, 10, Usera, 28026 Madrid, España, 28026, Madrid, Madrid, España",687 74 24 37,,,,40.385595,-3.7135838,gplace/None,Google
Fontaneros,Fontanería Rafael Sánchez,"Av. de Levante, 18, 28521 Rivas-Vaciamadrid, Madrid, España, 28521, Rivas-Vaciamadrid, Madrid, España",650 78 00 27,,,,40.3251055,-3.5106036,gplace/None,Google
Fontaneros,Bane Fontaneros,"C. Luna, 3, 28901 Getafe, Madrid, España, 28901, Getafe, Madrid, España",919 93 29 94,,,https://banefontaneros.com/,40.3044082,-3.7318704,gplace/None,Google
Fontaneros,Fontanería y Suministros Fontamadrid,"C. de Antonio Toledano, 5, Salamanca, 28028 Madrid, España, 28028, Madrid, Madrid, España",913 61 39 42,,,,40.42521139999999,-3.6666415,gplace/None,Google
Fontaneros,Hnos Herrera | Fontaneros en Chamartín,"Calle del Cardenal Silíceo, 30, Chamartín, 28002 Madrid, España, 28002, Madrid, Madrid, España",919 93 21 69,,,https://sites.google.com/view/hnos-herrera-fontaneros-en-cha/inicio,40.4433607,-3.6701971,gplace/None,Google
Fontaneros,Servicios de Fontanería,"C. de Alejandro Ferrant, 16, Arganzuela, 28045 Madrid, España, 28045, Madrid, Madrid, España",919 93 08 74,,,https://sites.google.com/view/serviciosdefontaneria/inicio,40.394688,-3.692416399999999,gplace/None,Google
Fontaneros,Saneamientos Hnos. Diaz Fontaneria,"C. del Monte Aya, 25, Vallecas, 28031 Madrid, España, 28031, Madrid, Madrid, España",913 32 15 77,,,,40.376945,-3.6213307,gplace/None,Google
Fontaneros,Fontanería Luis Alberto Palacios Ibáñez,"Av del Manzanares, 84, Carabanchel, 28019 Madrid, España, 28019, Madrid, Madrid, España",915 60 75 85,,,,40.4000409,-3.7215841,gplace/None,Google
Fontaneros,Lexa Fontaneros,"P.º de Extremadura, 137, Latina, 28011 Madrid, España, 28011, Madrid, Madrid, España",640 95 79 24,,,https://lexafontaneros.madrid/,40.4100935,-3.7377245,gplace/None,Google
Fontaneros,Fontanero Martínez y Hermanos,"C. Villalonso, 13, Villaverde, 28021 Madrid, España, 28021, Madrid, Madrid, España",919 93 19 17,,,https://sites.google.com/view/fontaneromartnezyhermanos/inicio,40.349327,-3.7080082,gplace/None,Google
Fontaneros,Fontanero Carabanchel,"Carabanchel, C. Antonio Antoranz, 26, 3B, Carabanchel, 28025 Madrid, España, 28025, Madrid, Madrid, España",919 93 17 62,,,https://sites.google.com/view/fontanero-carabanchel/inicio,40.3809169,-3.741578999999999,gplace/None,Google
Fontaneros,Fontaneros Pacífico Retiro Mediodía,"c. de Melquíades Biencinto, 19, Puente de Vallecas, 28053 Madrid, España, 28053, Madrid, Madrid, España",630 36 36 24,,,https://fontaneria-h-m-delgado.jimdosite.com/,40.3956387,-3.6702532,gplace/None,Google
Fontaneros,Fontanería y albañilería Madrid Instalación | Reparación | Mantenimiento | Profesionales Madrid,"C. de Camarena, 261, 2º Izq, Latina, 28047 Madrid, España, 28047, Madrid, Madrid, España",675 07 23 29,,,https://profesionalesmadrid.com/,40.3849564,-3.7569198,gplace/None,Google
